     2.11           N: GPS NAV DATA                         RINEX VERSION / TYPE
CONVBIN 2.4.3                           20210829 030104 UTC PGM / RUN BY / DATE 
log: logs/21_08_29_00_11_01_brdc.rtcm                       COMMENT             
format: RTCM 3                                              COMMENT             
                                                            END OF HEADER       
 7 21  8 29  2  0  0.0  .234531704336E-03  .750333128963E-11  .000000000000E+00
     .260000000000E+02  .373750000000E+02  .483913014062E-08  .163515618323E+01
     .195950269699E-05  .152580370195E-01  .962242484093E-05  .515374560928E+04
     .720000000000E+04 -.378116965294E-06 -.204974677483E+01  .335276126862E-07
     .951242626319E+00  .194406250000E+03 -.230915075765E+01 -.819605568433E-08
    -.685742849656E-10  .100000000000E+01  .217300000000E+04  .000000000000E+00
     .200000000000E+01  .000000000000E+00 -.111758708954E-07  .260000000000E+02
     .000000000000E+00  .400000000000E+01
 8 21  8 29  2  0  0.0 -.343960709870E-04 -.136424205266E-11  .000000000000E+00
     .970000000000E+02 -.244062500000E+02  .432696594979E-08 -.172108172699E+01
    -.121816992760E-05  .643616064917E-02  .552274286747E-05  .515364682961E+04
     .720000000000E+04 -.130385160446E-07  .189878296393E-01 -.745058059692E-07
     .966766301057E+00  .277093750000E+03  .571061161161E-01 -.809212278368E-08
    -.144291724615E-09  .100000000000E+01  .217300000000E+04  .000000000000E+00
     .280000000000E+01  .000000000000E+00  .512227416039E-08  .970000000000E+02
     .000000000000E+00  .400000000000E+01
 9 21  8 29  2  0  0.0 -.359924510121E-03 -.795807864051E-12  .000000000000E+00
     .780000000000E+02 -.268125000000E+02  .491413326480E-08 -.137263684468E+01
    -.127777457237E-05  .207981176209E-02  .773742794991E-05  .515371781158E+04
     .720000000000E+04 -.502914190292E-07 -.312181979724E+01 -.167638063431E-07
     .953978939978E+00  .231312500000E+03  .181424682077E+01 -.817141180067E-08
    -.632169189527E-10  .100000000000E+01  .217300000000E+04  .000000000000E+00
     .200000000000E+01  .000000000000E+00  .139698386192E-08  .780000000000E+02
     .000000000000E+00  .400000000000E+01
10 21  8 29  2  0  0.0 -.192013103515E-03 -.773070496507E-11  .000000000000E+00
     .420000000000E+02 -.165000000000E+02  .440911222865E-08  .278622874515E+00
    -.804662704468E-06  .685414427426E-02  .687874853611E-05  .515367357254E+04
     .720000000000E+04  .409781932831E-07  .212937871189E+01  .124797224998E-06
     .970216588958E+00  .253250000000E+03 -.258300354200E+01 -.806319300721E-08
     .296440919383E-09  .100000000000E+01  .217300000000E+04  .000000000000E+00
     .200000000000E+01  .000000000000E+00  .232830643654E-08  .420000000000E+02
     .000000000000E+00  .400000000000E+01
12 21  8 29  1 59 44.0 -.895536504686E-04 -.545696821064E-11  .000000000000E+00
     .210000000000E+02  .597812500000E+02  .449804450447E-08  .896043475122E+00
     .303983688354E-05  .823816657066E-02  .542402267456E-05  .515368931770E+04
     .718400000000E+04 -.113621354103E-06 -.937969457941E+00  .279396772385E-07
     .972274853253E+00  .281781250000E+03  .123185296282E+01 -.828963101069E-08
    -.757174396496E-10  .100000000000E+01  .217300000000E+04  .000000000000E+00
     .200000000000E+01  .000000000000E+00 -.125728547573E-07  .210000000000E+02
     .000000000000E+00  .400000000000E+01
13 21  8 29  2  0  0.0  .177814159542E-03  .522959453519E-11  .000000000000E+00
     .200000000000E+02 -.235625000000E+02  .448947271884E-08 -.234910273294E+01
    -.142119824886E-05  .533253594767E-02  .831298530102E-05  .515367990494E+04
     .720000000000E+04  .912696123123E-07 -.297175670061E+01 -.260770320892E-07
     .968642979182E+00  .221687500000E+03  .960227649724E+00 -.784782689349E-08
    -.778603860547E-10  .100000000000E+01  .217300000000E+04  .000000000000E+00
     .200000000000E+01  .000000000000E+00 -.111758708954E-07  .200000000000E+02
     .000000000000E+00  .400000000000E+01
14 21  8 29  2  0  0.0  .133435241878E-04 -.841282599140E-11  .000000000000E+00
     .920000000000E+02  .530312500000E+02  .486377402428E-08  .873988473882E+00
     .272691249847E-05  .106855132617E-02  .463239848614E-05  .515364675331E+04
     .720000000000E+04  .391155481339E-07 -.966579416198E+00 -.167638063431E-07
     .955714219756E+00  .284750000000E+03  .308394539969E+01 -.834570477496E-08
    -.114290474943E-09  .100000000000E+01  .217300000000E+04  .000000000000E+00
     .200000000000E+01  .000000000000E+00 -.791624188423E-08  .860000000000E+03
     .000000000000E+00  .400000000000E+01
15 21  8 29  2  0  0.0 -.125048682094E-03  .272848410532E-11  .000000000000E+00
     .630000000000E+02 -.338750000000E+02  .538951020902E-08 -.269832314762E+01
    -.208616256714E-05  .135589406127E-01  .713951885700E-05  .515366614151E+04
     .720000000000E+04  .188127160072E-06  .305986838526E+01 -.135973095894E-06
     .929699321640E+00  .222843750000E+03  .101777826765E+01 -.823177145775E-08
     .207151485834E-10  .100000000000E+01  .217300000000E+04  .000000000000E+00
     .200000000000E+01  .000000000000E+00 -.107102096081E-07  .630000000000E+02
     .000000000000E+00  .400000000000E+01
16 21  8 29  2  0  0.0 -.381459016353E-03 -.636646291241E-11  .000000000000E+00
     .930000000000E+02  .480937500000E+02  .440446917811E-08 -.917785521611E+00
     .259280204773E-05  .121855729958E-01  .527687370777E-05  .515374892998E+04
     .720000000000E+04  .219792127609E-06 -.919260571670E+00  .162050127983E-06
     .972318225848E+00  .283312500000E+03  .680228457491E+00 -.814069623553E-08
    -.105718689322E-09  .100000000000E+01  .217300000000E+04  .000000000000E+00
     .200000000000E+01  .000000000000E+00 -.102445483208E-07  .930000000000E+02
     .000000000000E+00  .400000000000E+01
17 21  8 29  2  0  0.0  .496485270560E-03  .579802872380E-11  .000000000000E+00
     .600000000000E+02 -.312187500000E+02  .407016953890E-08 -.176402888076E+01
    -.149942934513E-05  .134880836122E-01  .596791505814E-05  .515365117645E+04
     .720000000000E+04  .141561031342E-06  .983007978914E-01  .294297933578E-06
     .981677561714E+00  .276000000000E+03 -.155976626387E+01 -.787425656582E-08
    -.294297972978E-09  .100000000000E+01  .217300000000E+04  .000000000000E+00
     .280000000000E+01  .000000000000E+00 -.111758708954E-07  .600000000000E+02
     .000000000000E+00  .400000000000E+01
18 21  8 29  2  0  0.0  .328239984810E-03 -.386535248253E-11  .000000000000E+00
     .186000000000E+03 -.405625000000E+02  .408267005960E-08  .258357860632E+01
    -.203400850296E-05  .187093706336E-02  .854022800922E-05  .515365526199E+04
     .720000000000E+04 -.931322574615E-08  .110549347370E+01  .000000000000E+00
     .968895451047E+00  .219718750000E+03  .292081355847E+01 -.787532803902E-08
     .113219001740E-09  .100000000000E+01  .217300000000E+04  .000000000000E+00
     .200000000000E+01  .000000000000E+00 -.838190317154E-08  .186000000000E+03
     .000000000000E+00  .400000000000E+01
19 21  8 29  1 59 44.0  .457423739135E-04  .500222085975E-11  .000000000000E+00
     .150000000000E+02 -.391875000000E+02  .413945813933E-08  .613729406670E+00
    -.224448740482E-05  .917531049345E-02  .639259815216E-05  .515364686012E+04
     .718400000000E+04 -.428408384323E-07  .143324397099E+00 -.141561031342E-06
     .980286140830E+00  .273437500000E+03  .192916792458E+01 -.811069498586E-08
    -.326442169055E-09  .100000000000E+01  .217300000000E+04  .000000000000E+00
     .200000000000E+01  .000000000000E+00 -.153668224812E-07  .150000000000E+02
     .000000000000E+00  .400000000000E+01
20 21  8 29  2  0  0.0  .519408844411E-03 -.227373675443E-12  .000000000000E+00
     .820000000000E+02 -.740625000000E+01  .497985028790E-08 -.285607622674E+01
    -.249594449997E-06  .551647960674E-02  .694952905178E-05  .515364172935E+04
     .720000000000E+04 -.633299350739E-07  .198323537552E+01  .223517417908E-07
     .939300510048E+00  .232281250000E+03  .297402761029E+01 -.825927260328E-08
     .387873299337E-09  .100000000000E+01  .217300000000E+04  .000000000000E+00
     .200000000000E+01  .000000000000E+00 -.838190317154E-08  .820000000000E+02
     .000000000000E+00  .400000000000E+01
21 21  8 29  2  0  0.0  .139797106385E-03  .204636307899E-11  .000000000000E+00
     .330000000000E+02 -.179687500000E+02  .431125100948E-08 -.167048586843E+01
    -.597909092903E-06  .240563136758E-01  .844337046146E-05  .515365285683E+04
     .720000000000E+04 -.424683094025E-06  .100887077159E+01  .426545739174E-06
     .957936582498E+00  .220812500000E+03 -.109248909312E+01 -.811748098281E-08
     .150006248362E-09  .100000000000E+01  .217300000000E+04  .000000000000E+00
     .200000000000E+01  .000000000000E+00 -.102445483208E-07  .330000000000E+02
     .000000000000E+00  .400000000000E+01
22 21  8 29  2  0  0.0 -.526725780219E-03  .932232069317E-11  .000000000000E+00
     .930000000000E+02 -.703125000000E+01  .504306720685E-08 -.289730592492E+01
    -.339001417160E-06  .677790830377E-02  .651553273201E-05  .515374971390E+04
     .720000000000E+04 -.745058059692E-08  .202944601133E+01  .894069671631E-07
     .936016166796E+00  .236218750000E+03 -.900440142283E+00 -.826784438891E-08
     .322513433979E-09  .100000000000E+01  .217300000000E+04  .000000000000E+00
     .200000000000E+01  .000000000000E+00 -.176951289177E-07  .930000000000E+02
     .000000000000E+00  .400000000000E+01
